{"fetched_at":"2026-03-29T02:12:04Z","count":15717,"tles":[{"name":"STARLINK-2427","line1":"1 47837U 21018BC  26087.60045585 -.00001672  00000+0 -93383-4 0  9994","line2":"2 47837  53.0551 146.7261 0001452  99.7446 260.3707 15.06395796279732","category":"Starlink"}]}